[{"OBJECT_NAME":"STARLINK-5431","OBJECT_ID":"2022-175AL","EPOCH":"2026-03-09T22:50:13.565760","MEAN_MOTION":15.08836769,"ECCENTRICITY":0.00013154,"INCLINATION":53.2179,"RA_OF_ASC_NODE":42.5835,"ARG_OF_PERICENTER":90.5831,"MEAN_ANOMALY":269.5312,"EPHEMERIS_TYPE":0,"CLASSIFICATION_TYPE":"U","NORAD_CAT_ID":54792,"ELEMENT_SET_NO":999,"REV_AT_EPOCH":17996,"BSTAR":4.0529025e-5,"MEAN_MOTION_DOT":3.57e-6,"MEAN_MOTION_DDOT":0},{"OBJECT_NAME":"IRIDIUM 33 DEB","OBJECT_ID":"1997-051UN","EPOCH":"2026-03-08T06:46:46.443072","MEAN_MOTION":15.09674475,"ECCENTRICITY":0.00152582,"INCLINATION":86.3393,"RA_OF_ASC_NODE":271.884,"ARG_OF_PERICENTER":69.7211,"MEAN_ANOMALY":290.5665,"EPHEMERIS_TYPE":0,"CLASSIFICATION_TYPE":"U","NORAD_CAT_ID":35929,"ELEMENT_SET_NO":999,"REV_AT_EPOCH":89067,"BSTAR":0.003863549,"MEAN_MOTION_DOT":0.00062834,"MEAN_MOTION_DDOT":0}]
